[
  {
    "name": "ONEWEB-0643",
    "noradId": "55807",
    "line1": "1 55807U 23029M   26166.39339936  .00000067  00000+0  14505-3 0  9997",
    "line2": "2 55807  87.8952 290.0875 0001847 121.7580 238.3730 13.14503077159159"
  },
  {
    "name": "ONEWEB-0644",
    "noradId": "55808",
    "line1": "1 55808U 23029N   26166.42554279  .00000081  00000+0  16983-3 0  9999",
    "line2": "2 55808  87.9166 305.3294 0001703 109.2093 250.9224 13.19724563158678"
  },
  {
    "name": "ONEWEB-0645",
    "noradId": "55809",
    "line1": "1 55809U 23029P   26166.37183696  .00000015  00000+0  47576-5 0  9996",
    "line2": "2 55809  87.9166 305.3370 0001393  99.3047 260.8243 13.19724580158666"
  },
  {
    "name": "ONEWEB-0646",
    "noradId": "55810",
    "line1": "1 55810U 23029Q   26166.46504102 -.00000034  00000+0 -11699-3 0  9995",
    "line2": "2 55810  87.9166 305.3186 0001723 107.4518 252.6803 13.19724928158661"
  },
  {
    "name": "ONEWEB-0648",
    "noradId": "55811",
    "line1": "1 55811U 23029R   26166.36166102 -.00000084  00000+0 -26058-3 0  9999",
    "line2": "2 55811  87.8966 290.0672 0001059 117.2377 242.8860 13.14501128159152"
  },
  {
    "name": "ONEWEB-0649",
    "noradId": "55812",
    "line1": "1 55812U 23029S   26166.41448606  .00000088  00000+0  18797-3 0  9991",
    "line2": "2 55812  87.9169 305.3264 0001599 100.8418 259.2894 13.19725230158693"
  },
  {
    "name": "ONEWEB-0650",
    "noradId": "55813",
    "line1": "1 55813U 23029T   26166.40973666  .00000050  00000+0  91390-4 0  9990",
    "line2": "2 55813  87.9168 305.3298 0001541 115.0177 245.1116 13.19725024158666"
  },
  {
    "name": "ONEWEB-0652",
    "noradId": "55814",
    "line1": "1 55814U 23029U   26166.41874889  .00000229  00000+0  58215-3 0  9995",
    "line2": "2 55814  87.8961 290.0632 0002040  98.8702 261.2659 13.14504873159132"
  },
  {
    "name": "ONEWEB-0653",
    "noradId": "55815",
    "line1": "1 55815U 23029V   26166.32678421  .00000223  00000+0  56748-3 0  9993",
    "line2": "2 55815  87.8961 290.0794 0001880  97.8812 262.2531 13.14503552159159"
  },
  {
    "name": "ONEWEB-0654",
    "noradId": "55816",
    "line1": "1 55816U 23029W   26166.39814513  .00000115  00000+0  27519-3 0  9999",
    "line2": "2 55816  87.8960 290.0614 0002149  92.7573 267.3803 13.14504206159185"
  },
  {
    "name": "ONEWEB-0656",
    "noradId": "55817",
    "line1": "1 55817U 23029X   26166.53775845  .00000025  00000+0  30064-4 0  9990",
    "line2": "2 55817  87.9195 274.7583 0002307  92.6602 267.4795 13.20773505160932"
  },
  {
    "name": "ONEWEB-0657",
    "noradId": "55818",
    "line1": "1 55818U 23029Y   26166.40501808  .00000064  00000+0  12807-3 0  9990",
    "line2": "2 55818  87.9170 305.3296 0002517 103.7485 256.3928 13.19724923158675"
  },
  {
    "name": "ONEWEB-0658",
    "noradId": "55819",
    "line1": "1 55819U 23029Z   26166.40027731  .00000072  00000+0  14666-3 0  9993",
    "line2": "2 55819  87.9176 305.3057 0001657 110.6583 249.4728 13.19724865158684"
  },
  {
    "name": "ONEWEB-0660",
    "noradId": "55820",
    "line1": "1 55820U 23029AA  26166.37594235 -.00000108  00000+0 -32662-3 0  9997",
    "line2": "2 55820  87.8972 290.0588 0001560  97.3133 262.8174 13.14503817159168"
  },
  {
    "name": "ONEWEB-0661",
    "noradId": "55821",
    "line1": "1 55821U 23029AB  26166.41084227  .00000277  00000+0  71399-3 0  9993",
    "line2": "2 55821  87.8955 290.0970 0001643  93.6157 266.5161 13.14502852159156"
  },
  {
    "name": "ONEWEB-0662",
    "noradId": "55822",
    "line1": "1 55822U 23029AC  26166.36960477 -.00000168  00000+0 -48869-3 0  9995",
    "line2": "2 55822  87.8952 290.1115 0001586  97.3385 262.7925 13.14502808159197"
  },
  {
    "name": "ONEWEB-0663",
    "noradId": "55823",
    "line1": "1 55823U 23029AD  26166.26857323  .00000074  00000+0  14957-3 0  9995",
    "line2": "2 55823  87.9198 274.8838 0001530 105.7150 254.4152 13.20868972160898"
  },
  {
    "name": "ONEWEB-0664",
    "noradId": "55824",
    "line1": "1 55824U 23029AE  26166.52428910 -.00000007  00000+0 -48203-4 0  9991",
    "line2": "2 55824  87.9182 274.8140 0001807  86.1744 273.9596 13.20770422160920"
  },
  {
    "name": "ONEWEB-0665",
    "noradId": "55825",
    "line1": "1 55825U 23029AF  26166.33155264  .00000340  00000+0  88365-3 0  9990",
    "line2": "2 55825  87.8954 290.0937 0001550 101.2939 258.8365 13.14503344159161"
  },
  {
    "name": "ONEWEB-0666",
    "noradId": "55826",
    "line1": "1 55826U 23029AG  26166.29028567  .00000010  00000+0 -80845-5 0  9993",
    "line2": "2 55826  87.9182 274.8505 0002655 106.0770 254.0655 13.20771392160901"
  },
  {
    "name": "ONEWEB-0667",
    "noradId": "55827",
    "line1": "1 55827U 23029AH  26166.36099772 -.00000024  00000+0 -91285-4 0  9993",
    "line2": "2 55827  87.9199 274.7942 0001803  98.0295 262.1043 13.20771708160902"
  },
  {
    "name": "ONEWEB-0669",
    "noradId": "55828",
    "line1": "1 55828U 23029AJ  26166.35594303  .00000014  00000+0  27425-5 0  9996",
    "line2": "2 55828  87.9191 274.8065 0002286  87.5973 272.5422 13.20771751160908"
  },
  {
    "name": "ONEWEB-0670",
    "noradId": "55829",
    "line1": "1 55829U 23029AK  26166.38546753 -.00000062  00000+0 -20251-3 0  9999",
    "line2": "2 55829  87.8951 290.1002 0001687  88.9368 271.1955 13.14503239159193"
  },
  {
    "name": "ONEWEB-0671",
    "noradId": "55830",
    "line1": "1 55830U 23029AL  26166.39552777  .00000053  00000+0  10055-3 0  9994",
    "line2": "2 55830  87.9167 305.3326 0001693  96.6354 263.4971 13.19724277158666"
  },
  {
    "name": "ONEWEB-0672",
    "noradId": "55831",
    "line1": "1 55831U 23029AM  26166.35088664 -.00000015  00000+0 -68034-4 0  9991",
    "line2": "2 55831  87.9193 274.8007 0002245  99.3346 260.8041 13.20771807160909"
  },
  {
    "name": "ONEWEB-0673",
    "noradId": "55832",
    "line1": "1 55832U 23029AN  26166.44844110  .00000015  00000+0  62330-5 0  9990",
    "line2": "2 55832  87.9175 305.3136 0001735  95.9869 264.1462 13.19727311158672"
  },
  {
    "name": "ONEWEB-0674",
    "noradId": "55833",
    "line1": "1 55833U 23029AP  26166.35374411  .00000065  00000+0  14139-3 0  9990",
    "line2": "2 55833  87.8954 290.0833 0001697  87.3308 272.8016 13.14504170159179"
  },
  {
    "name": "ONEWEB-0675",
    "noradId": "55834",
    "line1": "1 55834U 23029AQ  26166.38764025  .00000049  00000+0  89806-4 0  9994",
    "line2": "2 55834  87.9168 305.3355 0002087 104.4231 255.7134 13.19724827158681"
  },
  {
    "name": "ONEWEB-0720",
    "noradId": "55835",
    "line1": "1 55835U 23029AR  26166.37973640  .00000050  00000+0  93211-4 0  9996",
    "line2": "2 55835  87.9166 305.3373 0001590 103.9826 256.1483 13.19724845158606"
  },
  {
    "name": "ONEWEB-0537",
    "noradId": "56046",
    "line1": "1 56046U 23043A   26166.44667028 -.00000035  00000+0 -12490-3 0  9999",
    "line2": "2 56046  87.9096 229.1172 0002278  99.5079 260.6310 13.16594211158739"
  }
]