OBJECT_NAME,OBJECT_ID,EPOCH,MEAN_MOTION,ECCENTRICITY,INCLINATION,RA_OF_ASC_NODE,ARG_OF_PERICENTER,MEAN_ANOMALY,EPHEMERIS_TYPE,CLASSIFICATION_TYPE,NORAD_CAT_ID,ELEMENT_SET_NO,REV_AT_EPOCH,BSTAR,MEAN_MOTION_DOT,MEAN_MOTION_DDOT
ONEWEB-0643,2023-029M,2026-06-15T09:26:29.704704,13.14503077,.0001847,87.8952,290.0875,121.7580,238.3730,0,U,55807,999,15915,.14505E-3,.67E-6,0
ONEWEB-0644,2023-029N,2026-06-15T10:12:46.897056,13.19724563,.0001703,87.9166,305.3294,109.2093,250.9224,0,U,55808,999,15867,.16983E-3,.81E-6,0
ONEWEB-0645,2023-029P,2026-06-15T08:55:26.713344,13.19724580,.0001393,87.9166,305.3370,99.3047,260.8243,0,U,55809,999,15866,.47576E-5,.15E-6,0
ONEWEB-0646,2023-029Q,2026-06-15T11:09:39.544128,13.19724928,.0001723,87.9166,305.3186,107.4518,252.6803,0,U,55810,999,15866,-.11699E-3,-.34E-6,0
ONEWEB-0648,2023-029R,2026-06-15T08:40:47.512128,13.14501128,.0001059,87.8966,290.0672,117.2377,242.8860,0,U,55811,999,15915,-.26058E-3,-.84E-6,0
ONEWEB-0649,2023-029S,2026-06-15T09:56:51.595584,13.19725230,.0001599,87.9169,305.3264,100.8418,259.2894,0,U,55812,999,15869,.18797E-3,.88E-6,0
ONEWEB-0650,2023-029T,2026-06-15T09:50:01.247424,13.19725024,.0001541,87.9168,305.3298,115.0177,245.1116,0,U,55813,999,15866,.9139E-4,.5E-6,0
ONEWEB-0652,2023-029U,2026-06-15T10:02:59.904096,13.14504873,.000204,87.8961,290.0632,98.8702,261.2659,0,U,55814,999,15913,.58215E-3,.229E-5,0
ONEWEB-0653,2023-029V,2026-06-15T07:50:34.155744,13.14503552,.000188,87.8961,290.0794,97.8812,262.2531,0,U,55815,999,15915,.56748E-3,.223E-5,0
ONEWEB-0654,2023-029W,2026-06-15T09:33:19.739232,13.14504206,.0002149,87.8960,290.0614,92.7573,267.3803,0,U,55816,999,15918,.27519E-3,.115E-5,0
ONEWEB-0656,2023-029X,2026-06-15T12:54:22.330080,13.20773505,.0002307,87.9195,274.7583,92.6602,267.4795,0,U,55817,999,16093,.30064E-4,.25E-6,0
ONEWEB-0657,2023-029Y,2026-06-15T09:43:13.562112,13.19724923,.0002517,87.9170,305.3296,103.7485,256.3928,0,U,55818,999,15867,.12807E-3,.64E-6,0
ONEWEB-0658,2023-029Z,2026-06-15T09:36:23.959584,13.19724865,.0001657,87.9176,305.3057,110.6583,249.4728,0,U,55819,999,15868,.14666E-3,.72E-6,0
ONEWEB-0660,2023-029AA,2026-06-15T09:01:21.419040,13.14503817,.000156,87.8972,290.0588,97.3133,262.8174,0,U,55820,999,15916,-.32662E-3,-.108E-5,0
ONEWEB-0661,2023-029AB,2026-06-15T09:51:36.772128,13.14502852,.0001643,87.8955,290.0970,93.6157,266.5161,0,U,55821,999,15915,.71399E-3,.277E-5,0
ONEWEB-0662,2023-029AC,2026-06-15T08:52:13.852128,13.14502808,.0001586,87.8952,290.1115,97.3385,262.7925,0,U,55822,999,15919,-.48869E-3,-.168E-5,0
ONEWEB-0663,2023-029AD,2026-06-15T06:26:44.727072,13.20868972,.000153,87.9198,274.8838,105.7150,254.4152,0,U,55823,999,16089,.14957E-3,.74E-6,0
ONEWEB-0664,2023-029AE,2026-06-15T12:34:58.578240,13.20770422,.0001807,87.9182,274.8140,86.1744,273.9596,0,U,55824,999,16092,-.48203E-4,-.7E-7,0
ONEWEB-0665,2023-029AF,2026-06-15T07:57:26.148096,13.14503344,.000155,87.8954,290.0937,101.2939,258.8365,0,U,55825,999,15916,.88365E-3,.34E-5,0
ONEWEB-0666,2023-029AG,2026-06-15T06:58:00.681888,13.20771392,.0002655,87.9182,274.8505,106.0770,254.0655,0,U,55826,999,16090,-.80845E-5,.1E-6,0
ONEWEB-0667,2023-029AH,2026-06-15T08:39:50.203008,13.20771708,.0001803,87.9199,274.7942,98.0295,262.1043,0,U,55827,999,16090,-.91285E-4,-.24E-6,0
ONEWEB-0669,2023-029AJ,2026-06-15T08:32:33.477792,13.20771751,.0002286,87.9191,274.8065,87.5973,272.5422,0,U,55828,999,16090,.27425E-5,.14E-6,0
ONEWEB-0670,2023-029AK,2026-06-15T09:15:04.394592,13.14503239,.0001687,87.8951,290.1002,88.9368,271.1955,0,U,55829,999,15919,-.20251E-3,-.62E-6,0
ONEWEB-0671,2023-029AL,2026-06-15T09:29:33.599328,13.19724277,.0001693,87.9167,305.3326,96.6354,263.4971,0,U,55830,999,15866,.10055E-3,.53E-6,0
ONEWEB-0672,2023-029AM,2026-06-15T08:25:16.605696,13.20771807,.0002245,87.9193,274.8007,99.3346,260.8041,0,U,55831,999,16090,-.68034E-4,-.15E-6,0
ONEWEB-0673,2023-029AN,2026-06-15T10:45:45.311040,13.19727311,.0001735,87.9175,305.3136,95.9869,264.1462,0,U,55832,999,15867,.6233E-5,.15E-6,0
ONEWEB-0674,2023-029AP,2026-06-15T08:29:23.491104,13.14504170,.0001697,87.8954,290.0833,87.3308,272.8016,0,U,55833,999,15917,.14139E-3,.65E-6,0
ONEWEB-0675,2023-029AQ,2026-06-15T09:18:12.117600,13.19724827,.0002087,87.9168,305.3355,104.4231,255.7134,0,U,55834,999,15868,.89806E-4,.49E-6,0
ONEWEB-0720,2023-029AR,2026-06-15T09:06:49.224960,13.19724845,.000159,87.9166,305.3373,103.9826,256.1483,0,U,55835,999,15860,.93211E-4,.5E-6,0
ONEWEB-0537,2023-043A,2026-06-15T10:43:12.312192,13.16594211,.0002278,87.9096,229.1172,99.5079,260.6310,0,U,56046,999,15873,-.1249E-3,-.35E-6,0
